NORAD_CAT_ID,OBJECT_NAME,OBJECT_TYPE,EPOCH,MEAN_MOTION,ECCENTRICITY,INCLINATION,RA_OF_ASC_NODE,ARG_OF_PERICENTER,MEAN_ANOMALY,BSTAR,MEAN_MOTION_DOT,MEAN_MOTION_DDOT,TLE_LINE0,TLE_LINE1,TLE_LINE2,SEMIMAJOR_AXIS,PERIOD,APOGEE,PERIGEE,DECAYED
53177.0,STARLINK-4298,PAYLOAD,2024-01-05 12:07:49,15.08834249,0.0001316,53.217,104.342,93.3227,266.7916,1.9505e-05,2.3e-07,0.0,0 STARLINK-4298,1 53177U 22083AX  24005.50542915  .00000023  00000-0  19505-4 0  9999,2 53177  53.2170 104.3420 0001316  93.3227 266.7916 15.08834249 82443,6917.898,95.438,540.673,538.853,0.0
53177.0,STARLINK-4298,PAYLOAD,2024-01-05 16:53:58,15.08824802,0.0001369,53.2173,103.4498,86.9525,273.1623,0.00017038,2.424e-05,0.0,0 STARLINK-4298,1 53177U 22083AX  24005.70415097  .00002424  00000-0  17038-3 0  9996,2 53177  53.2173 103.4498 0001369  86.9525 273.1623 15.08824802 81831,6917.927,95.439,540.739,538.845,0.0
53177.0,STARLINK-4298,PAYLOAD,2024-01-06 11:58:35,15.08841431,0.0001399,53.2169,99.8811,96.1984,263.9168,1.8902e-05,1.3e-07,0.0,0 STARLINK-4298,1 53177U 22083AX  24006.49902694  .00000013  00000-0  18902-4 0  9991,2 53177  53.2169  99.8811 0001399  96.1984 263.9168 15.08841431 81959,6917.876,95.437,540.709,538.773,0.0
53177.0,STARLINK-4298,PAYLOAD,2024-01-06 15:09:21,15.08846114,0.0001407,53.2172,99.2861,92.2584,267.8569,5.797e-05,6.35e-06,0.0,0 STARLINK-4298,1 53177U 22083AX  24006.63150274  .00000635  00000-0  57970-4 0  9994,2 53177  53.2172  99.2861 0001407  92.2584 267.8569 15.08846114 82610,6917.862,95.437,540.7,538.753,0.0
53177.0,STARLINK-4298,PAYLOAD,2024-01-07 11:49:23,15.08838503,0.000143,53.2168,95.4212,105.5281,254.5869,6.3184e-05,7.18e-06,0.0,0 STARLINK-4298,1 53177U 22083AX  24007.49262805  .00000718  00000-0  63184-4 0  9999,2 53177  53.2168  95.4212 0001430 105.5281 254.5869 15.08838503 82744,6917.885,95.438,540.739,538.761,0.0
53177.0,STARLINK-4298,PAYLOAD,2024-01-07 13:24:45,15.08849363,0.000134,53.2166,95.125,100.6738,259.4405,-6.4134e-05,-1.309e-05,0.0,0 STARLINK-4298,1 53177U 22083AX  24007.55886529 -.00001309  00000-0 -64134-4 0  9996,2 53177  53.2166  95.1250 0001340 100.6738 259.4405 15.08849363 82111,6917.852,95.437,540.644,538.79,0.0
53177.0,STARLINK-4298,PAYLOAD,2024-01-08 11:40:09,15.08846214,0.0001459,53.2168,90.963,78.5142,281.6014,3.7607e-05,3.11e-06,0.0,0 STARLINK-4298,1 53177U 22083AX  24008.48622646  .00000311  00000-0  37607-4 0  9992,2 53177  53.2168  90.9630 0001459  78.5142 281.6014 15.08846214 82891,6917.861,95.437,540.736,538.717,0.0
53177.0,STARLINK-4298,PAYLOAD,2024-01-09 11:30:57,15.08841323,0.0001527,53.2167,86.503,71.9959,288.12,4.5454e-05,4.36e-06,0.0,0 STARLINK-4298,1 53177U 22083AX  24009.47982908  .00000436  00000-0  45454-4 0  9999,2 53177  53.2167  86.5030 0001527  71.9959 288.1200 15.08841323 83047,6917.876,95.437,540.798,538.685,0.0
53177.0,STARLINK-4298,PAYLOAD,2024-01-10 11:21:43,15.08866784,0.0001964,53.2174,82.0418,104.2282,255.8928,-0.00027386,-4.647e-05,0.0,0 STARLINK-4298,1 53177U 22083AX  24010.47342116 -.00004647  00000-0 -27386-3 0  9995,2 53177  53.2174  82.0418 0001964 104.2282 255.8928 15.08866784 83192,6917.799,95.436,541.022,538.305,0.0
53177.0,STARLINK-4298,PAYLOAD,2024-01-11 09:37:07,15.08886888,0.0001701,53.2189,77.8811,117.1606,242.9559,-0.00055458,-9.115e-05,0.0,0 STARLINK-4298,1 53177U 22083AX  24011.40077747 -.00009115  00000-0 -55458-3 0  9990,2 53177  53.2189  77.8811 0001701 117.1606 242.9559 15.08886888 82697,6917.737,95.435,540.779,538.425,0.0
53177.0,STARLINK-4298,PAYLOAD,2024-01-12 04:41:46,15.08824683,0.0001258,53.2195,74.3138,112.0669,248.0457,-9.0085e-05,-1.721e-05,0.0,0 STARLINK-4298,1 53177U 22083AX  24012.19568167 -.00001721  00000-0 -90085-4 0  9999,2 53177  53.2195  74.3138 0001258 112.0669 248.0457 15.08824683 83452,6917.927,95.439,540.662,538.922,0.0
53177.0,STARLINK-4298,PAYLOAD,2024-01-12 09:27:55,15.08834438,0.0001464,53.2175,73.417,104.2813,255.8342,-4.2719e-05,-9.68e-06,0.0,0 STARLINK-4298,1 53177U 22083AX  24012.39439600 -.00000968  00000-0 -42719-4 0  9993,2 53177  53.2175  73.4170 0001464 104.2813 255.8342 15.08834438 83480,6917.897,95.438,540.775,538.75,0.0
53177.0,STARLINK-4298,PAYLOAD,2024-01-13 10:54:05,15.08842173,0.0001277,53.2173,68.6617,98.5181,261.5955,5.2026e-05,5.4e-06,0.0,0 STARLINK-4298,1 53177U 22083AX  24013.45423166  .00000540  00000-0  52026-4 0  9997,2 53177  53.2173  68.6617 0001277  98.5181 261.5955 15.08842173 83642,6917.874,95.437,540.622,538.855,0.0
53177.0,STARLINK-4298,PAYLOAD,2024-01-13 23:37:11,15.08826111,0.0001153,53.2182,66.2828,85.1227,274.9897,0.00012964,1.775e-05,0.0,0 STARLINK-4298,1 53177U 22083AX  24013.98416112  .00001775  00000-0  12964-3 0  9995,2 53177  53.2182  66.2828 0001153  85.1227 274.9897 15.08826111 83722,6917.923,95.438,540.585,538.99,0.0
53177.0,STARLINK-4298,PAYLOAD,2024-01-14 10:44:53,15.08838823,0.0001521,53.2175,64.2035,84.5813,275.5352,0.00010256,1.345e-05,0.0,0 STARLINK-4298,1 53177U 22083AX  24014.44783768  .00001345  00000-0  10256-3 0  9996,2 53177  53.2175  64.2035 0001521  84.5813 275.5352 15.08838823 83798,6917.884,95.438,540.801,538.697,0.0
53177.0,STARLINK-4298,PAYLOAD,2024-01-14 12:20:16,15.08841188,0.0001481,53.217,63.9035,88.5366,271.5796,0.00011959,1.616e-05,0.0,0 STARLINK-4298,1 53177U 22083AX  24014.51407547  .00001616  00000-0  11959-3 0  9994,2 53177  53.2170  63.9035 0001481  88.5366 271.5796 15.08841188 83168,6917.877,95.437,540.766,538.717,0.0
53177.0,STARLINK-4298,PAYLOAD,2024-01-15 10:35:39,15.08848686,0.0001711,53.2174,59.7402,73.2319,286.8861,0.00010278,1.348e-05,0.0,0 STARLINK-4298,1 53177U 22083AX  24015.44143254  .00001348  00000-0  10278-3 0  9994,2 53177  53.2174  59.7402 0001711  73.2319 286.8861 15.08848686 83306,6917.854,95.437,540.902,538.535,0.0
53177.0,STARLINK-4298,PAYLOAD,2024-01-16 02:29:31,15.08837357,0.0001787,53.218,56.7681,76.6701,283.4491,3.3785e-05,2.5e-06,0.0,0 STARLINK-4298,1 53177U 22083AX  24016.10384210  .00000250  00000-0  33785-4 0  9997,2 53177  53.2180  56.7681 0001787  76.6701 283.4491 15.08837357 84041,6917.888,95.438,540.99,538.517,0.0
53177.0,STARLINK-4298,PAYLOAD,2024-01-16 08:51:04,15.0883721,0.000188,53.218,55.5779,92.0924,268.0284,3.6347e-05,2.9e-06,0.0,0 STARLINK-4298,1 53177U 22083AX  24016.36880235  .00000290  00000-0  36347-4 0  9994,2 53177  53.2180  55.5779 0001880  92.0924 268.0284 15.08837210 83449,6917.889,95.438,541.054,538.453,0.0
53177.0,STARLINK-4298,PAYLOAD,2024-01-17 08:41:51,15.08840556,0.0001849,53.2176,51.117,82.2922,277.828,2.2301e-05,6.7e-07,0.0,0 STARLINK-4298,1 53177U 22083AX  24017.36240230  .00000067  00000-0  22301-4 0  9997,2 53177  53.2176  51.1170 0001849  82.2922 277.8280 15.08840556 84234,6917.879,95.438,541.023,538.465,0.0
53177.0,STARLINK-4298,PAYLOAD,2024-01-18 08:32:38,15.08840738,0.00021,53.2194,46.6558,109.6686,250.4533,9.0289e-05,1.149e-05,0.0,0 STARLINK-4298,1 53177U 22083AX  24018.35599934  .00001149  00000-0  90289-4 0  9997,2 53177  53.2194  46.6558 0002100 109.6686 250.4533 15.08840738 83740,6917.878,95.438,541.196,538.29,0.0
53177.0,STARLINK-4298,PAYLOAD,2024-01-19 02:01:53,15.08836304,0.0001986,53.219,43.3828,103.4165,256.7049,1.6427e-05,-2.7e-07,0.0,0 STARLINK-4298,1 53177U 22083AX  24019.08464603 -.00000027  00000-0  16427-4 0  9999,2 53177  53.2190  43.3828 0001986 103.4165 256.7049 15.08836304 84493,6917.892,95.438,541.131,538.383,0.0
53177.0,STARLINK-4298,PAYLOAD,2024-01-19 08:23:25,15.08839001,0.0002002,53.219,42.1937,103.5595,256.562,3.7638e-05,3.11e-06,0.0,0 STARLINK-4298,1 53177U 22083AX  24019.34960428  .00000311  00000-0  37638-4 0  9996,2 53177  53.2190  42.1937 0002002 103.5595 256.5620 15.08839001 83892,6917.883,95.438,541.133,538.363,0.0
53177.0,STARLINK-4298,PAYLOAD,2024-01-20 08:14:13,15.08795476,0.0002264,53.2195,37.7335,107.8621,252.2618,0.00064649,0.00010003,0.0,0 STARLINK-4298,1 53177U 22083AX  24020.34321269  .00010003  00000-0  64649-3 0  9992,2 53177  53.2195  37.7335 0002264 107.8621 252.2618 15.08795476 84681,6918.016,95.44,541.448,538.315,0.0
53177.0,STARLINK-4298,PAYLOAD,2024-01-21 00:08:04,15.08838897,0.000219,53.2183,34.7612,96.2014,263.9228,4.7799e-05,4.73e-06,0.0,0 STARLINK-4298,1 53177U 22083AX  24021.00560744  .00000473  00000-0  47799-4 0  9997,2 53177  53.2183  34.7612 0002190  96.2014 263.9228 15.08838897 84780,6917.884,95.438,541.264,538.234,0.0
53177.0,STARLINK-4298,PAYLOAD,2024-01-21 06:29:37,15.0883653,0.0001989,53.2197,33.5699,104.2913,255.83,4.3863e-05,4.1e-06,0.0,0 STARLINK-4298,1 53177U 22083AX  24021.27056930  .00000410  00000-0  43863-4 0  9992,2 53177  53.2197  33.5699 0001989 104.2913 255.8300 15.08836530 84187,6917.891,95.438,541.132,538.38,0.0
53177.0,STARLINK-4298,PAYLOAD,2024-01-21 08:05:00,15.08837758,0.0001888,53.2186,33.2717,85.5979,274.5229,6.7322e-05,7.83e-06,0.0,0 STARLINK-4298,1 53177U 22083AX  24021.33680921  .00000783  00000-0  67322-4 0  9991,2 53177  53.2186  33.2717 0001888  85.5979 274.5229 15.08837758 84196,6917.887,95.438,541.058,538.446,0.0
53177.0,STARLINK-4298,PAYLOAD,2024-01-21 23:58:52,15.08834969,0.0002061,53.2189,30.2988,82.7922,277.3304,4.4654e-05,4.22e-06,0.0,0 STARLINK-4298,1 53177U 22083AX  24021.99921332  .00000422  00000-0  44654-4 0  9990,2 53177  53.2189  30.2988 0002061  82.7922 277.3304 15.08834969 84935,6917.896,95.438,541.187,538.335,0.0
53177.0,STARLINK-4298,PAYLOAD,2024-01-22 06:20:24,15.08841544,0.0001941,53.2189,29.1105,78.9484,281.1726,6.0248e-05,6.71e-06,0.0,0 STARLINK-4298,1 53177U 22083AX  24022.26416926  .00000671  00000-0  60248-4 0  9992,2 53177  53.2189  29.1105 0001941  78.9484 281.1726 15.08841544 84331,6917.876,95.437,541.083,538.398,0.0
53177.0,STARLINK-4298,PAYLOAD,2024-01-22 07:55:47,15.08843574,0.0002059,53.2193,28.8132,81.003,279.1195,7.9031e-05,9.7e-06,0.0,0 STARLINK-4298,1 53177U 22083AX  24022.33040760  .00000970  00000-0  79031-4 0  9991,2 53177  53.2193  28.8132 0002059  81.0030 279.1195 15.08843574 84988,6917.869,95.437,541.159,538.31,0.0
